[{"spaceTrack":{"CCSDS_OMM_VERS":"2.0","COMMENT":"GENERATED VIA SPACE-TRACK.ORG API","CREATION_DATE":"2021-10-26T06:46:11","ORIGINATOR":"18 SPCS","OBJECT_NAME":"STARLINK-1512","OBJECT_ID":"2020-038BH","CENTER_NAME":"EARTH","REF_FRAME":"TEME","TIME_SYSTEM":"UTC","MEAN_ELEMENT_THEORY":"SGP4","EPOCH":"2021-10-26T00:29:19.799520","MEAN_MOTION":15.06395027,"ECCENTRICITY":0.0001758,"INCLINATION":53.0529,"RA_OF_ASC_NODE":159.8644,"ARG_OF_PERICENTER":74.7381,"MEAN_ANOMALY":285.3802,"EPHEMERIS_TYPE":0,"CLASSIFICATION_TYPE":"U","NORAD_CAT_ID":45785,"ELEMENT_SET_NO":999,"REV_AT_EPOCH":7717,"BSTAR":0.000080032,"MEAN_MOTION_DOT":0.00000911,"MEAN_MOTION_DDOT":0,"SEMIMAJOR_AXIS":6925.364,"PERIOD":95.592,"APOAPSIS":548.446,"PERIAPSIS":546.011,"OBJECT_TYPE":"PAYLOAD","RCS_SIZE":"LARGE","COUNTRY_CODE":"US","LAUNCH_DATE":"2020-06-13","SITE":"AFETR","DECAY_DATE":null,"DECAYED":0,"FILE":3184040,"GP_ID":188158345,"TLE_LINE0":"0 STARLINK-1512","TLE_LINE1":"1 45785U 20038BH  21299.02036805  .00000911  00000-0  80032-4 0  9997","TLE_LINE2":"2 45785  53.0529 159.8644 0001758  74.7381 285.3802 15.06395027 77171"},"launch":"5eb87d46ffd86e000604b389","version":"v1.0","height_km":547.7339438677973,"latitude":5.060395604486287,"longitude":64.2046209128004,"velocity_kms":7.5896338900018225,"id":"5eed7716096e590006985821"},{"spaceTrack":{"CCSDS_OMM_VERS":"2.0","COMMENT":"GENERATED VIA SPACE-TRACK.ORG API","CREATION_DATE":"2021-10-25T14:26:11","ORIGINATOR":"18 SPCS","OBJECT_NAME":"STARLINK-1497","OBJECT_ID":"2020-038BD","CENTER_NAME":"EARTH","REF_FRAME":"TEME","TIME_SYSTEM":"UTC","MEAN_ELEMENT_THEORY":"SGP4","EPOCH":"2021-10-25T08:07:24.090528","MEAN_MOTION":15.06392998,"ECCENTRICITY":0.0001869,"INCLINATION":53.0536,"RA_OF_ASC_NODE":162.9295,"ARG_OF_PERICENTER":78.5454,"MEAN_ANOMALY":281.5745,"EPHEMERIS_TYPE":0,"CLASSIFICATION_TYPE":"U","NORAD_CAT_ID":45781,"ELEMENT_SET_NO":999,"REV_AT_EPOCH":7707,"BSTAR":-0.000020038,"MEAN_MOTION_DOT":-0.0000058,"MEAN_MOTION_DDOT":0,"SEMIMAJOR_AXIS":6925.37,"PERIOD":95.593,"APOAPSIS":548.529,"PERIAPSIS":545.941,"OBJECT_TYPE":"PAYLOAD","RCS_SIZE":"LARGE","COUNTRY_CODE":"US","LAUNCH_DATE":"2020-06-13","SITE":"AFETR","DECAY_DATE":null,"DECAYED":0,"FILE":3183238,"GP_ID":188117621,"TLE_LINE0":"0 STARLINK-1497","TLE_LINE1":"1 45781U 20038BD  21298.33847327 -.00000580  00000-0 -20038-4 0  9999","TLE_LINE2":"2 45781  53.0536 162.9295 0001869  78.5454 281.5745 15.06392998 77075"},"launch":"5eb87d46ffd86e000604b389","version":"v1.0","height_km":566.9366687228421,"latitude":-53.059666896618644,"longitude":163.87652323731535,"velocity_kms":7.576782076940039,"id":"5eed7716096e590006985822"},{"spaceTrack":{"CCSDS_OMM_VERS":"2.0","COMMENT":"GENERATED VIA SPACE-TRACK.ORG API","CREATION_DATE":"2021-10-26T14:36:12","ORIGINATOR":"18 SPCS","OBJECT_NAME":"STARLINK-1502","OBJECT_ID":"2020-038AL","CENTER_NAME":"EARTH","REF_FRAME":"TEME","TIME_SYSTEM":"UTC","MEAN_ELEMENT_THEORY":"SGP4","EPOCH":"2021-10-26T04:14:52.996128","MEAN_MOTION":15.06407327,"ECCENTRICITY":0.0002023,"INCLINATION":53.0532,"RA_OF_ASC_NODE":179.1507,"ARG_OF_PERICENTER":68.1219,"MEAN_ANOMALY":291.9985,"EPHEMERIS_TYPE":0,"CLASSIFICATION_TYPE":"U","NORAD_CAT_ID":45764,"ELEMENT_SET_NO":999,"REV_AT_EPOCH":7692,"BSTAR":0.000025599,"MEAN_MOTION_DOT":0.000001,"MEAN_MOTION_DDOT":0,"SEMIMAJOR_AXIS":6925.326,"PERIOD":95.592,"APOAPSIS":548.592,"PERIAPSIS":545.79,"OBJECT_TYPE":"PAYLOAD","RCS_SIZE":"LARGE","COUNTRY_CODE":"US","LAUNCH_DATE":"2020-06-13","SITE":"AFETR","DECAY_DATE":null,"DECAYED":0,"FILE":3184668,"GP_ID":188170897,"TLE_LINE0":"0 STARLINK-1502","TLE_LINE1":"1 45764U 20038AL  21299.17700227  .00000100  00000-0  25599-4 0  9993","TLE_LINE2":"2 45764  53.0532 179.1507 0002023  68.1219 291.9985 15.06407327 76922"},"launch":"5eb87d46ffd86e000604b389","version":"v1.0","height_km":548.2468928243752,"latitude":33.61581138066229,"longitude":-62.18940657588222,"velocity_kms":7.592921101338506,"id":"5eed7716096e590006985823"},{"spaceTrack":{"CCSDS_OMM_VERS":"2.0","COMMENT":"GENERATED VIA SPACE-TRACK.ORG API","CREATION_DATE":"2021-10-25T18:30:04","ORIGINATOR":"18 SPCS","OBJECT_NAME":"STARLINK-1488","OBJECT_ID":"2020-038AX","CENTER_NAME":"EARTH","REF_FRAME":"TEME","TIME_SYSTEM":"UTC","MEAN_ELEMENT_THEORY":"SGP4","EPOCH":"2021-10-25T02:54:14.020704","MEAN_MOTION":15.06395433,"ECCENTRICITY":0.0001899,"INCLINATION":53.054,"RA_OF_ASC_NODE":163.8983,"ARG_OF_PERICENTER":80.6634,"MEAN_ANOMALY":279.4569,"EPHEMERIS_TYPE":0,"CLASSIFICATION_TYPE":"U","NORAD_CAT_ID":45775,"ELEMENT_SET_NO":999,"REV_AT_EPOCH":7612,"BSTAR":-0.00001678,"MEAN_MOTION_DOT":-0.00000532,"MEAN_MOTION_DDOT":0,"SEMIMAJOR_AXIS":6925.363,"PERIOD":95.592,"APOAPSIS":548.543,"PERIAPSIS":545.912,"OBJECT_TYPE":"PAYLOAD","RCS_SIZE":"LARGE","COUNTRY_CODE":"US","LAUNCH_DATE":"2020-06-13","SITE":"AFETR","DECAY_DATE":null,"DECAYED":0,"FILE":3183453,"GP_ID":188142371,"TLE_LINE0":"0 STARLINK-1488","TLE_LINE1":"1 45775U 20038AX  21298.12099561 -.00000532  00000-0 -16780-4 0  9994","TLE_LINE2":"2 45775  53.0540 163.8983 0001899  80.6634 279.4569 15.06395433 76126"},"launch":"5eb87d46ffd86e000604b389","version":"v1.0","height_km":546.94353846796,"latitude":10.644148126010183,"longitude":-103.90765813683808,"velocity_kms":7.590844010205021,"id":"5eed7716096e590006985824"},{"spaceTrack":{"CCSDS_OMM_VERS":"2.0","COMMENT":"GENERATED VIA SPACE-TRACK.ORG API","CREATION_DATE":"2021-10-26T06:46:11","ORIGINATOR":"18 SPCS","OBJECT_NAME":"STARLINK-1506","OBJECT_ID":"2020-038T","CENTER_NAME":"EARTH","REF_FRAME":"TEME","TIME_SYSTEM":"UTC","MEAN_ELEMENT_THEORY":"SGP4","EPOCH":"2021-10-26T01:01:09.773472","MEAN_MOTION":15.06406801,"ECCENTRICITY":0.0001825,"INCLINATION":53.0543,"RA_OF_ASC_NODE":199.7602,"ARG_OF_PERICENTER":71.3856,"MEAN_ANOMALY":288.7331,"EPHEMERIS_TYPE":0,"CLASSIFICATION_TYPE":"U","NORAD_CAT_ID":45747,"ELEMENT_SET_NO":999,"REV_AT_EPOCH":7661,"BSTAR":0.000052832,"MEAN_MOTION_DOT":0.00000506,"MEAN_MOTION_DDOT":0,"SEMIMAJOR_AXIS":6925.328,"PERIOD":95.592,"APOAPSIS":548.457,"PERIAPSIS":545.929,"OBJECT_TYPE":"PAYLOAD","RCS_SIZE":"LARGE","COUNTRY_CODE":"US","LAUNCH_DATE":"2020-06-13","SITE":"AFETR","DECAY_DATE":null,"DECAYED":0,"FILE":3184037,"GP_ID":188158318,"TLE_LINE0":"0 STARLINK-1506","TLE_LINE1":"1 45747U 20038T   21299.04247423  .00000506  00000-0  52832-4 0  9994","TLE_LINE2":"2 45747  53.0543 199.7602 0001825  71.3856 288.7331 15.06406801 76612"},"launch":"5eb87d46ffd86e000604b389","version":"v1.0","height_km":549.6324807759884,"latitude":40.199271119801885,"longitude":-32.801158325445186,"velocity_kms":7.592829838334547,"id":"5eed7716096e590006985825"},{"spaceTrack":{"CCSDS_OMM_VERS":"2.0","COMMENT":"GENERATED VIA SPACE-TRACK.ORG API","CREATION_DATE":"2020-02-20T21:36:25","ORIGINATOR":"18 SPCS","OBJECT_NAME":"STARLINK-46","OBJECT_ID":"2019-029M","CENTER_NAME":"EARTH","REF_FRAME":"TEME","TIME_SYSTEM":"UTC","MEAN_ELEMENT_THEORY":"SGP4","EPOCH":"2020-02-20T12:53:54.492000","MEAN_MOTION":16.40063924,"ECCENTRICITY":0.0026963,"INCLINATION":52.9662,"RA_OF_ASC_NODE":262.5732,"ARG_OF_PERICENTER":244.6149,"MEAN_ANOMALY":115.2104,"EPHEMERIS_TYPE":0,"CLASSIFICATION_TYPE":"U","NORAD_CAT_ID":44246,"ELEMENT_SET_NO":999,"REV_AT_EPOCH":4270,"BSTAR":0.00076906,"MEAN_MOTION_DOT":0.1765854,"MEAN_MOTION_DDOT":0.000012175,"SEMIMAJOR_AXIS":6543.769,"PERIOD":87.801,"APOAPSIS":183.278,"PERIAPSIS":147.99,"OBJECT_TYPE":"PAYLOAD","RCS_SIZE":"LARGE","COUNTRY_CODE":"US","LAUNCH_DATE":"2019-05-24","SITE":"AFETR","DECAY_DATE":"2020-02-20","DECAYED":1,"FILE":2706890,"GP_ID":149154971,"TLE_LINE0":"0 STARLINK-46","TLE_LINE1":"1 44246U 19029M   20051.53743625  .17658540  12175-4  76906-3 0  9991","TLE_LINE2":"2 44246  52.9662 262.5732 0026963 244.6149 115.2104 16.40063924 42707"},"launch":"5eb87d30ffd86e000604b378","version":"v0.9","height_km":null,"latitude":null,"longitude":null,"velocity_kms":null,"id":"5eefa85e6527ee0006dcee24"},{"spaceTrack":{"CCSDS_OMM_VERS":"2.0","COMMENT":"GENERATED VIA SPACE-TRACK.ORG API","CREATION_DATE":"2020-04-02T18:11:05","ORIGINATOR":"18 SPCS","OBJECT_NAME":"STARLINK-1118","OBJECT_ID":"2020-001AL","CENTER_NAME":"EARTH","REF_FRAME":"TEME","TIME_SYSTEM":"UTC","MEAN_ELEMENT_THEORY":"SGP4","EPOCH":"2020-04-02T02:46:14.129184","MEAN_MOTION":16.33333815,"ECCENTRICITY":0.0006458,"INCLINATION":52.9916,"RA_OF_ASC_NODE":320.639,"ARG_OF_PERICENTER":255.897,"MEAN_ANOMALY":104.1355,"EPHEMERIS_TYPE":0,"CLASSIFICATION_TYPE":"U","NORAD_CAT_ID":44948,"ELEMENT_SET_NO":999,"REV_AT_EPOCH":1367,"BSTAR":0.0015322,"MEAN_MOTION_DOT":0.10026385,"MEAN_MOTION_DDOT":0.000012155,"SEMIMAJOR_AXIS":6561.732,"PERIOD":88.163,"APOAPSIS":187.835,"PERIAPSIS":179.36,"OBJECT_TYPE":"PAYLOAD","RCS_SIZE":"LARGE","COUNTRY_CODE":"US","LAUNCH_DATE":"2020-01-07","SITE":"AFETR","DECAY_DATE":"2020-04-02","DECAYED":1,"FILE":2727577,"GP_ID":151494381,"TLE_LINE0":"0 STARLINK-1118","TLE_LINE1":"1 44948U 20001AL  20093.11544131 +.10026385 +12155-4 +15322-2 0  9994","TLE_LINE2":"2 44948 052.9916 320.6390 0006458 255.8970 104.1355 16.33333815013677"},"launch":"5eb87d3cffd86e000604b380","version":"v1.0","height_km":null,"latitude":null,"longitude":null,"velocity_kms":null,"id":"5eefa8636527ee0006dceea5"}]